"Mobile","Full Name","somePref","DOB","PosRefNum","Postal Code","Street Address","State","Country"
"156-555-0109","Graham Crane","ebullition event","07/08/2018 12:00:00 AM","5649c581e6dd","00000","4588 Maplewood","North Washington","US"
"450-555-0195","Kennedi Parker","expectance partner","01/27/1992 12:00:00 AM",,"00000","6714 E Goshen St","New Delaware","US"
"849-555-0195","Arlette Hale","capsuling steam","08/04/1971 12:00:00 AM",,"00000","336 Prairieville St","Liberty","US"
"896-555-0152","Hassan Simpson","unrepellable toad","10/22/1976 12:00:00 AM",,"00000","1768 N Capitol St","New Delaware","US"
"745-555-0138","Moises Ho","asar airport","08/28/2013 12:00:00 AM","a06856d4fc47","00000","23 Foster St","West Elizabeth","US"
"781-555-0188","Onyx Bautista","nesslerize pocket","04/04/2011 12:00:00 AM","d34b19e93c2d","00000","5130 E Edom St","Euphoria","US"
"522-555-0189","Ruth Morrison","nonheuristic cream","09/04/1971 12:00:00 AM","155843d7bd43","00000","4745 Lazy U St","Dorado ","US"
"437-555-0161","Khalil Conway","andesite planes","11/12/1992 12:00:00 AM",,"00000","797 Woodland Dr","Oconee","US"
"268-555-0126","Cody Hubbard","unbastardized belief","12/21/2014 12:00:00 AM","00ea01f26906","00000","9625 W Dallas St","Statesota ","US"
"815-555-0125","Ahmad Reeves","supermixture jail","08/12/2003 12:00:00 AM",,"00000","4635 County Road 2201","Michisota","US"
"167-555-0150","Jabari Willis","titer government","05/07/2010 12:00:00 AM",,"00000","6992 Ave A","Wichita","US"
"673-555-0182","Anastasia Ross","nephrolithic aftermath","03/15/1981 12:00:00 AM",,"00000","2822 Groves St","New Hanover","US"
"700-555-0118","Beau Quinn","soberer song","04/09/2004 12:00:00 AM","daac06a55311","00000","6484 Mill Creek Rd","New Guernsey","US"
"669-555-0169","Ambrose Mccoy","noncorrodible rock","07/01/1994 12:00:00 AM","97985585877a","00000","5208 County Road 3120","Wichita","US"
"744-555-0116","Octavia Conley","stabilivolt yarn","12/02/1999 12:00:00 AM",,"00000","6879 County Road 2120","Apodidraskiana","US"
"691-555-0194","Andy Harmon","chooky coat","06/26/1998 12:00:00 AM","24dc921d0e8f","00000","750 Nichols Dr","Liberty","US"
"888-555-0173","Cade Mccann","copht crowd","12/28/2003 12:00:00 AM","fbdba017eb7d","00000","8196 Martins Mill Rd","Moosylvania","US"
"755-555-0119","Esmeralda Ross","unrepellable window","08/07/2021 12:00:00 AM","ae365a18fbc5","00000","9551 City Lake Rd","New Texas","US"
"354-555-0134","Noa Davenport","smudgedly fog","01/19/1984 12:00:00 AM","308290c36330","00000","8016 County Road 2120","Statesota ","US"
"482-555-0148","Zeke Love","nonrectangularity engine","04/21/1991 12:00:00 AM","5916d4120c8d","00000","1299 Forrest Dr","Moosylvania","US"
"111-555-0124","Julie Baldwin","partition discussion","08/13/2002 12:00:00 AM",,"00000","9129 Big Rock St","Apodidraskiana","US"
"825-555-0156","Robin Hawkins","unevangelized ice","10/30/1973 12:00:00 AM",,"00000","1839 Ave C","Apodidraskiana","US"
"772-555-0170","Harmony Enriquez","renovator rabbits","10/12/2016 12:00:00 AM","27b2ca5cbbb0","00000","4998 Towles Dr","Oklachusetts","US"
"874-555-0139","Jazmin Thornton","marsupialising finger","11/25/1997 12:00:00 AM","ab598a16809b","00000","5891 County Road 3202","North Washington","US"
"197-555-0156","Kellen Boyle","metaphrastically sleep","12/26/2000 12:00:00 AM","cbac5f46edd7","00000","9504 Glen Ln","Moosylvania","US"
"795-555-0143","Kye Ashley","aerobium shame","12/11/1980 12:00:00 AM","b54b2978cb16","00000","7952 Live Oak Rd","New Texas","US"
"912-555-0126","Antonio Ball","navigator pancake","10/15/1981 12:00:00 AM","4847bae0176f","00000","5512 Forrest Ln","Ambarino ","US"
"376-555-0175","Amelie Mccullough","cachets humor","01/06/1976 12:00:00 AM","6ca9570c43e7","00000","5576 Lakewood Dr","North Yankton","US"
"567-555-0170","Oscar Crosby","philosophized fact","03/12/2018 12:00:00 AM",,"00000","8184 Waldner Rd","Lemoyne ","US"
"255-555-0192","Conor Trejo","supertutelary squirrel","12/08/1988 12:00:00 AM","c2fba6328b9d","00000","8217 Clay St","Apodidraskiana","US"
"132-555-0154","Kian Magana","pun birth","05/01/1994 12:00:00 AM","d72c4d7b28e4","00000","8461 E Edom St","New Delaware","US"
"707-555-0148","Sophie Delgado","titer amount","05/25/1983 12:00:00 AM",,"00000","2434 Eubank Dr","New Hanover","US"
"564-555-0184","Jayla Moyer","restored angle","03/15/1990 12:00:00 AM","9f5bfa8a0668","00000","976 W Terrell St","Euphoria","US"
"267-555-0168","Dana Hill","supertutelary sisters","04/29/1976 12:00:00 AM","21cff10f3cec","00000","7590 Park St","Temperance","US"
"965-555-0183","Braylen Escobar","noninductivity guitar","03/27/2006 12:00:00 AM",,"00000","6957 W Park St","Delmarva","US"
"653-555-0149","Nixon Sweeney","infiltrate team","08/24/2007 12:00:00 AM",,"00000","6887 Oak Square","Dorado ","US"
"809-555-0196","Vanessa Campbell","supertutelary thumb","02/23/2008 12:00:00 AM",,"00000","8822 Cherry Creek Rd","Keystone","US"
"811-555-0160","Maddox Garza","soberer song","08/05/2004 12:00:00 AM",,"00000","7756 Ave C","Lemoyne ","US"
"347-555-0125","Chelsea Berg","goblet bat","11/06/2018 12:00:00 AM","fb73c50cc572","00000","6098 S Trade Days Blvd","Oklachusetts","US"
"297-555-0192","Collins Nuñez","nesslerize screw","06/20/1973 12:00:00 AM",,"00000","4694 County Road 3120","North Yankton","US"
"100-555-0193","Angela Henry","movement marble","06/23/2013 12:00:00 AM",,"00000","8521 Cypress Ln","Keystone","US"
"305-555-0120","Elliot Greene","chromophotography zebra","03/21/1976 12:00:00 AM","125926854eb7","00000","7580 Park St","Fremont","US"
"942-555-0120","Yehuda Ochoa","titer ice","09/23/2002 12:00:00 AM","081ad39c5350","00000","1500 Cherry Creek Rd","Michisota","US"
"436-555-0119","Terrance Blackburn","espigle camp","06/10/2021 12:00:00 AM","241e6512b176","00000","128 Elliot Dr","Wichita","US"
"579-555-0116","Ryan Haley","agora dress","05/10/1999 12:00:00 AM","71ef1ef3c043","00000","8028 Granada Square","North Yankton","US"
"125-555-0157","Eileen Weeks","brindisi play","10/26/2014 12:00:00 AM","6082320283b2","00000","2977 Dodson St","Delmarva","US"
"180-555-0154","Rey Salgado","alkalescency trade","09/01/2003 12:00:00 AM","323d122b77ae","00000","68 Maplewood","Ochichornia","US"
"421-555-0190","Arthur Church","purificator cars","10/11/2011 12:00:00 AM","2441d55791aa","00000","5306 Old Kaufman Rd","Delmarva","US"
"242-555-0198","Valeria Douglas","unkempt decision","11/16/1996 12:00:00 AM","8934faeaa5ae","00000","7124 Prairieville St","New Guernsey","US"
"248-555-0178","Fiona Rubio","asar quicksand","05/05/2013 12:00:00 AM","8445c0db1122","00000","3644 Flea Market Rd","Liberty","US"
"253-555-0102","Michaela Curtis","chondromata existence","09/11/2016 12:00:00 AM","7c2aea499857","00000","5348 Hilliard Dr","Fremont","US"
"893-555-0105","Cassius Francis","doat steam","03/27/2016 12:00:00 AM","282d90e86471","00000","6674 Jim St","New Guernsey","US"
"783-555-0126","Scott Goodman","filthiness selection","01/12/1971 12:00:00 AM",,"00000","9159 Billy St","Euphoria","US"
"213-555-0149","Hana Hester","pun building","01/26/1974 12:00:00 AM",,"00000","5751 N Capitol St","New Guernsey","US"
"548-555-0148","Salma Brooks","chondromata friend","04/24/1997 12:00:00 AM",,"00000","2101 Dogwood St","Moosylvania","US"
"395-555-0154","Taliyah Briggs","malaprop arithmetic","06/16/1988 12:00:00 AM","7390893f77fb","00000","9004 Park St","Columbia","US"
"134-555-0190","Toby Lucero","noninductivity rod","04/16/1987 12:00:00 AM","bb276989c964","00000","8090 E Tyler St","Temperance","US"
"105-555-0120","Jeffery Mccullough","purificator nerve","09/17/2002 12:00:00 AM",,"00000","5464 County Road 4129","Statesota ","US"
"334-555-0148","Aniya Daniels","noncorrodible wealth","10/11/2016 12:00:00 AM",,"00000","8086 Clay St","West Dakota","US"
"122-555-0199","Aldo Webb","penang seashore","02/15/1993 12:00:00 AM",,"00000","2215 County Road 2201","North Washington","US"
"353-555-0193","Ronan Travis","undertie pizzas","09/21/2016 12:00:00 AM","3e48736a3dad","00000","8353 Slaughter St","Euphoria","US"
"168-555-0102","Talia Sanchez","gorblimy straw","04/28/2015 12:00:00 AM",,"00000","1652 1st Monday Ln","New Austin","US"
"661-555-0119","Melvin Ross","goblet appliance","06/06/1981 12:00:00 AM","9775bdc7ed45","00000","6346 E College St","Dorado ","US"
"677-555-0119","Marco Wiley","unwhitewashed coat","10/10/2014 12:00:00 AM",,"00000","2813 County Road 2201","Lemoyne ","US"
"134-555-0134","Parker Mullen","supertutelary reading","07/27/1994 12:00:00 AM",,"00000","5533 W Edom St","Catawba","US"
"638-555-0134","Bethany Benjamin","lingonberry income","01/21/1999 12:00:00 AM","d08515fac3c3","00000","7366 County Road 2201","New Troy","US"
"359-555-0191","Randy Jacobson","grandville drain","08/01/2005 12:00:00 AM","a2d71bffa629","00000","8352 Jack St","Alderney","US"
"587-555-0176","Kyrie Zhang","infiltrate nation","04/18/1992 12:00:00 AM","efef7b67c20f","00000","4023 Live Oak St","New Troy","US"
"131-555-0144","Navy Alfaro","piblockto stream","01/14/1984 12:00:00 AM","1d0ed7fcf8cf","00000","4139 Flea Market Rd","Dorado ","US"
"972-555-0189","Idris Manning","espigle horses","10/23/1998 12:00:00 AM","3f6f44113f6c","00000","4969 Waldner Rd","West Dakota","US"
"977-555-0107","Larry Arellano","porously lunch","02/14/2014 12:00:00 AM","46d585facdd8","00000","638 County Road 2201","Oklachusetts","US"
"774-555-0145","Cesar Leonard","capsuling pizzas","01/11/1972 12:00:00 AM","38de62c617b8","00000","5064 Live Oak St","West Elizabeth","US"
"881-555-0157","Journee Lee","required degree","12/31/2008 12:00:00 AM","f03370fd7347","00000","2525 E Church St","Ambarino ","US"
"116-555-0176","Addison Phan","duenna scarecrow","02/06/1970 12:00:00 AM","7054609d130c","00000","7619 Water Oak St","West Dakota","US"
"206-555-0118","Paisleigh Ochoa","broadcloth oranges","02/11/2013 12:00:00 AM","28f5ac2cd059","00000","7223 Glen Ln","Alderney","US"
"981-555-0143","Eugene Patterson","supertutelary basketball","02/27/1998 12:00:00 AM",,"00000","2010 Granada Square","Columbia","US"
"868-555-0166","Madilyn Grant","rebab income","09/01/2018 12:00:00 AM","a42dbd7171c0","00000","6510 Curry Dr","Apodidraskiana","US"
"258-555-0138","Lyra Oliver","biosocial mailbox","11/26/2002 12:00:00 AM","45462f3bb1cb","00000","5636 Stacey St","Wichita","US"
"815-555-0114","Jada Poole","gorblimy temper","03/21/1987 12:00:00 AM","8cdc79962978","00000","8112 Cherry Creek Rd","New Texas","US"
"536-555-0108","Jayla Olson","pun boy","02/01/2005 12:00:00 AM",,"00000","8660 W Park St","Apodidraskiana","US"
"180-555-0144","Alora Harrison","unoratorial railway","03/20/2003 12:00:00 AM",,"00000","5282 Clay St","Mickewa","US"
"147-555-0198","Ivory Pruitt","isopod lunchroom","12/21/2000 12:00:00 AM",,"00000","6055 S Trade Days Blvd","Michisota","US"
"227-555-0120","Hana Cardenas","indemonstrable achiever","07/13/1971 12:00:00 AM",,"00000","711 Billy St","Statesota ","US"
"693-555-0154","Ariya Santos","ebullition rose","10/01/2006 12:00:00 AM",,"00000","6772 City Lake Rd","New Austin","US"
"478-555-0104","Landyn Cortéz","stabilivolt planes","01/25/2008 12:00:00 AM","2bd5dbb92c3e","00000","5755 County Road 3202","West Dakota","US"
"314-555-0185","Rocco Daniel","unoratorial activity","10/28/2002 12:00:00 AM","1753d4b23d15","00000","2476 Short St","West Elizabeth","US"
"140-555-0121","Savanna Blackburn","wanton decision","08/17/1983 12:00:00 AM","86bf26d1d9ee","00000","4378 E Terrell St","New Texas","US"
"654-555-0135","Rebekah Fisher","required plane","03/25/2016 12:00:00 AM","a26841bd7ec6","00000","8893 County Road 3102","New Troy","US"
"278-555-0131","Nia Gates","chondromata drink","10/14/2001 12:00:00 AM","d99ca2d109dd","00000","7870 Ridge Rd","Temperance","US"
"939-555-0164","Edith Arroyo","fuji wool","06/08/1970 12:00:00 AM","6e25f1e6a631","00000","8301 Tower St","New Hanover","US"
"778-555-0141","Kason Sherman","undertie scissors","07/22/1999 12:00:00 AM",,"00000","4076 W Tyler St","West Elizabeth","US"
"585-555-0149","Lyla Mcmillan","marsupialising suit","05/19/2013 12:00:00 AM","8f8fe51e1473","00000","7370 Stacey St","Statesota ","US"
"739-555-0130","Johnny Glass","supermixture example","12/10/2002 12:00:00 AM",,"00000","1241 Country Club Dr","Oklachusetts","US"
"831-555-0197","Ephraim Patton","fuguist window","06/24/1987 12:00:00 AM",,"00000","9894 Woodland Dr","Oklachusetts","US"
"681-555-0178","Dash Gallegos","indemonstrable grass","01/02/1988 12:00:00 AM","9d7920ed9039","00000","5001 S Buffalo St","New Guernsey","US"
"798-555-0140","Lila Kerr","ghibelline sheet","04/08/1987 12:00:00 AM","69e337d1faaa","00000","7557 Nichols Dr","New Delaware","US"
"678-555-0156","Annie Leon","unperuked drain","09/22/1982 12:00:00 AM",,"00000","5091 Lakewood Dr","New Austin","US"
"839-555-0108","Camilo Nielsen","laterally thumb","12/22/1976 12:00:00 AM","c7a87ecc7678","00000","8064 Beard St","Apodidraskiana","US"
"383-555-0119","Keith Mccarthy","gallicizing bag","04/28/1991 12:00:00 AM","6447d3936882","00000","912 Judy Ln","New Hanover","US"
"943-555-0194","Phillip Hogan","purificator watch","03/24/1981 12:00:00 AM","79a9e6466ecf","00000","4460 Oak Square","Statesota ","US"